CONNECTA T2.1           
1 56210U 23054AJ  24253.53685946  .00040141  00000+0  10331-2 0  9999
2 56210  97.3462 150.0424 0008538 189.1290 170.9802 15.39096934 79032
INSPIRE-SAT 7           
1 56211U 23054AK  24253.26186834  .00891446  34606-3  25021-2 0  9999
2 56211  97.3354 158.3246 0011475 146.2622 213.9386 15.93506402 79528
LS3C                    
1 56214U 23054AN  24253.25888169  .00245311  00000+0  21844-2 0  9991
2 56214  97.3459 156.0804 0008738 146.0694 214.1127 15.67673896 79391
IRIS-C                  
1 56221U 23054AV  24253.18736325  .00276307  00000+0  24617-2 0  9997
2 56221  97.3449 154.6682 0008131 142.1842 217.9991 15.67573866 79289
DISCO-1                 
1 56222U 23054AW  24253.43853190  .00095597  00000+0  17855-2 0  9992
2 56222  97.3447 151.6496 0007423 177.3480 182.7812 15.48390877 79110
REVELA                  
1 56224U 23054AY  24252.78678717  .00100378  00000+0  16653-2 0  9990
2 56224  97.3474 152.3148 0006074 152.6280 207.5294 15.51751945 79097
TELEOS-2                
1 56310U 23057C   24253.10528606  .00024802  00000+0  20588-2 0  9996
2 56310   9.9878 228.4495 0000764 257.5079 102.5049 14.96494299 75868
SNIPE 4                 
1 56744U 23072B   24253.49470610  .00023816  00000+0  12262-2 0  9991
2 56744  97.5508  79.5686 0011835  98.1212 262.1363 15.16347940 71432
SNIPE 2                 
1 56745U 23072C   24253.48255911  .00029289  00000+0  15075-2 0  9991
2 56745  97.5650  80.1301 0008341 111.2496 248.9628 15.16345480 71446
2023-072G               
1 56749U 23072G   24253.52278237  .00028379  00000+0  13770-2 0  9995
2 56749  97.5309  79.2672 0008812 120.0584 240.1525 15.18414881 71499
OTTER PUP               
1 56933U 23084B   24252.91124504  .00032504  00000+0  12234-2 0  9991
2 56933  97.5456  12.5981 0006785  60.2306 299.9607 15.27031313 68926
GEISAT PRECURSOR        
1 56934U 23084C   24253.56954053  .00016538  00000+0  73732-3 0  9994
2 56934  97.5501  11.7163 0008994 101.3897 258.8349 15.21454661 68901
EIVE                    
1 56937U 23084F   24253.44876059  .00065011  00000+0  20338-2 0  9996
2 56937  97.5436  13.9254 0004660  94.3352 265.8422 15.32882526 69053
LAYAN-23                
1 56939U 23084H   24253.29825195  .00071553  00000+0  21230-2 0  9996
2 56939  97.5436  14.4428 0004692  82.7442 277.4333 15.34535257 69070
AFRL-XVI                
1 56942U 23084L   24252.90834515  .00061310  00000+0  19008-2 0  9993
2 56942  97.5473  14.1118 0006605  89.4977 270.7022 15.33177930 69004
BLACKJACK ACES-3        
1 56950U 23084U   24252.88270446  .00028547  00000+0  11809-2 0  9992
2 56950  97.5506  12.4593 0009947  79.5235 280.7122 15.23875700 68894
QPS-SAR-6 (AMATERU-III) 
1 56951U 23084V   24253.53202548  .00166916  00000+0  29645-2 0  9994
2 56951  97.5406  17.5523 0002515 352.4559   7.6653 15.49585204 69294
BLACKJACK ACES-4        
1 56952U 23084W   24252.88860945  .00042200  00000+0  15689-2 0  9995
2 56952  97.5493  12.6992 0009548  79.5831 280.6483 15.27358035 68918
BLACKJACK ACES-2        
1 56955U 23084Z   24253.32842090  .00038248  00000+0  16027-2 0  9993
2 56955  97.5496  12.8922 0009948  82.3533 277.8833 15.23375754 68969
BLACKJACK ACES-1        
1 56956U 23084AA  24252.91045191  .00034237  00000+0  14300-2 0  9991
2 56956  97.5467  12.4811 0010474  83.1465 277.0963 15.23505807 68892
ION SCV-011             
1 56957U 23084AB  24252.90725591  .00016367  00000+0  82431-3 0  9995
2 56957  98.0761  16.6196 0009970 110.1910 250.0395 15.17234243 67382
GHOST-3                 
1 56958U 23084AC  24253.22384667  .00026246  00000+0  11232-2 0  9994
2 56958  97.5507  12.0112 0011414  81.9631 278.2899 15.22730724 68893
TOMORROW-R2             
1 56962U 23084AG  24252.92334906  .00031053  00000+0  12146-2 0  9993
2 56962  97.5490  12.4971 0011326  79.9792 280.2724 15.25724536 68902
AFR-1                   
1 56964U 23084AJ  24253.47622824  .00013387  00000+0  64528-3 0  9997
2 56964  97.5532  11.3124 0014045  83.5913 276.6920 15.18757138 68864
DROID.001               
1 56965U 23084AK  24253.21732680  .00038277  00000+0  14554-2 0  9990
2 56965  97.5469  12.9273 0010432  73.1767 287.0615 15.26628515 68967
MUSAT1                  
1 56967U 23084AM  24253.30578733  .00135596  00000+0  26601-2 0  9997
2 56967  97.5380  17.4111 0004376  31.6490 328.5021 15.46829824 69279
AII-DELTA               
1 56987U 23084BH  24253.52888952  .00086400  00000+0  20846-2 0  9994
2 56987  97.5388  16.4909 0007026  39.6915 320.4844 15.40862870 69241
SPEI SATELLES           
1 56991U 23084BT  24252.84586601  .00068506  00000+0  20029-2 0  9999
2 56991  97.5418  14.4703 0006539  53.3554 306.8289 15.35004516 69048
URESAT-1                
1 56992U 23084BU  24253.53552971  .00087485  00000+0  24181-2 0  9990
2 56992  97.5367  14.2660 0008584  87.4013 272.8213 15.36665143 69096
MRC-100                 
1 56993U 23084BV  24252.77095267  .00112810  00000+0  27561-2 0  9992
2 56993  97.5358  14.2354 0006870  86.0670 274.1361 15.40372673 69038
METEOR-M2 3             
1 57166U 23091A   24253.50841592  .00000202  00000+0  10725-3 0  9991
2 57166  98.7050 307.3952 0003039 236.0353 124.0537 14.23923029 62625
STRATOSAT-TK 1 (RS52S)  
1 57167U 23091B   24253.48262054  .00040213  00000+0  20550-2 0  9991
2 57167  97.6024 306.4941 0014817 184.2712 175.8396 15.16458073 66314
UMKA 1 (RS40S)          
1 57172U 23091G   24253.52238507  .00014668  00000+0  92393-3 0  9998
2 57172  97.6029 304.7599 0016386 188.4199 171.6758 15.09154199 66201
2023-091H               
1 57173U 23091H   24253.52629377  .00019772  00000+0  12005-2 0  9990
2 57173  97.6028 304.9065 0014489 196.5689 163.5068 15.10452333 66215
2023-091J               
1 57174U 23091J   24253.49905180  .00012604  00000+0  84898-3 0  9993
2 57174  97.6042 303.8998 0015116 200.8564 159.2049 15.06733049 66148
CUBEBEL 2 (EU11S)       
1 57175U 23091K   24253.48878799  .00020186  00000+0  12285-2 0  9992
2 57175  97.6035 304.7920 0014546 200.0102 160.0559 15.10362264 66207
SITRO-AIS 5 (KATYS)     
1 57176U 23091L   24253.48254537  .00020500  00000+0  12363-2 0  9998
2 57176  97.6041 305.0162 0017189 188.5723 171.5215 15.10655626 66216
ZORKIY-2M 1             
1 57177U 23091M   24253.50714974  .00014905  00000+0  93453-3 0  9990
2 57177  97.6043 304.8764 0017252 185.8214 174.2817 15.09306823 66207
CUBESX-HSE 3 (RS42S)    
1 57178U 23091N   24253.51929166  .00021654  00000+0  12869-2 0  9993
2 57178  97.6063 305.4322 0016935 182.6965 177.4176 15.11179180 66235
MONITOR-3 (RS58S)       
1 57180U 23091Q   24253.47039328  .00020432  00000+0  12364-2 0  9996
2 57180  97.6061 305.1537 0017273 182.8437 177.2697 15.10531111 66212
MONITOR-4 (RS57S)       
1 57182U 23091S   24253.47088613  .00019646  00000+0  11889-2 0  9995
2 57182  97.6056 305.1221 0017320 183.4501 176.6612 15.10536504 66211
MONITOR-2 (RS39S)       
1 57184U 23091U   24253.48535450  .00013263  00000+0  83910-3 0  9998
2 57184  97.6065 305.1341 0014090 177.2436 182.8872 15.09047165 66210
SVYATOBOR 1 (RS60S)     
1 57187U 23091X   24253.47601610  .00017933  00000+0  10697-2 0  9991
2 57187  97.6065 305.7678 0013666 173.2594 186.8822 15.11128493 66251
HORS 1                  
1 57188U 23091Y   24253.47241122  .00018053  00000+0  10774-2 0  9990
2 57188  97.6043 305.6679 0013075 173.3174 186.8232 15.11116252 66252
VIZARD-METEO (RS38S)    
1 57189U 23091Z   24253.47548831  .00023853  00000+0  13488-2 0  9997
2 57189  97.6055 306.3394 0012727 169.9217 190.2271 15.13005076 66299
NANOZOND 1 (RS49S)      
1 57190U 23091AA  24253.44329651  .00037538  00000+0  19099-2 0  9992
2 57190  97.6023 307.1557 0010941 174.1162 186.0201 15.16672679 66354
SITRO-AIS 6 (CHIRKIN)   
1 57192U 23091AC  24253.46462425  .00020623  00000+0  12422-2 0  9993
2 57192  97.6037 305.0283 0017062 187.9669 172.1292 15.10700312 66210
SITRO-AIS 8 (ANOKHIN)   
1 57193U 23091AD  24253.47734806  .00020401  00000+0  12131-2 0  9991
2 57193  97.6038 305.1552 0016696 188.8602 171.2335 15.11175503 66229
SITRO-AIS 7 (FARTUSHNIY)
1 57194U 23091AE  24253.47254352  .00020135  00000+0  12152-2 0  9992
2 57194  97.6038 305.0098 0016876 188.5780 171.5163 15.10636171 66211
AVION KALUGA 650        
1 57195U 23091AF  24253.46414406  .00013692  00000+0  85822-3 0  9995
2 57195  97.6074 305.3891 0013442 177.1583 182.9725 15.09386649 66228
HORS 2                  
1 57196U 23091AG  24253.51623431  .00021154  00000+0  12221-2 0  9996
2 57196  97.6051 306.1427 0012860 174.6907 185.4462 15.12258209 66289
A-SEANSAT-PG1           
1 57197U 23091AH  24253.51470500  .00024908  00000+0  14106-2 0  9998
2 57197  97.6032 306.1925 0012623 177.1864 182.9440 15.12942283 66290
YARILO 3                
1 57198U 23091AJ  24253.48585707  .00066943  00000+0  28231-2 0  9990
2 57198  97.6069 308.8042 0010951 172.0696 188.0715 15.22991952 66446
SITRO-AIS 10 (BURDAEV)  
1 57199U 23091AK  24253.54089495  .00024468  00000+0  13759-2 0  9996
2 57199  97.6050 306.3804 0012452 174.7550 185.3814 15.13202249 66301
SITRO-AIS 9 (SHCHUKIN)  
1 57201U 23091AM  24253.47429931  .00023528  00000+0  13247-2 0  9993
2 57201  97.6046 306.2869 0012392 174.8435 185.2925 15.13166041 66295
UTMN 2 (RS27S)          
1 57203U 23091AP  24253.49786441  .00022304  00000+0  12855-2 0  9994
2 57203  97.6054 306.1529 0012987 171.4318 188.7137 15.12329670 66281
SITRO-AIS 12 (SMIRENNIY)
1 57204U 23091AQ  24253.49216234  .00024509  00000+0  13720-2 0  9994
2 57204  97.6056 306.4698 0012343 169.8206 190.3277 15.13364021 66304
ARCCUBE 1 (RS25S)       
1 57205U 23091AR  24253.47623666  .00042108  00000+0  20328-2 0  9991
2 57205  97.5990 307.4395 0010961 174.1891 185.9472 15.18481855 66384
SITRO-AIS 11 (SHEFFER)  
1 57208U 23091AU  24253.47250950  .00024164  00000+0  13483-2 0  9992
2 57208  97.6052 306.4832 0012277 169.5394 190.6095 15.13484517 66309
